[{"OBJECT_NAME":"STARLINK-11550 [DTC]","OBJECT_ID":"2025-035A","EPOCH":"2026-03-09T05:55:46.267392","MEAN_MOTION":15.70875066,"ECCENTRICITY":0.00015327,"INCLINATION":43.0009,"RA_OF_ASC_NODE":17.8004,"ARG_OF_PERICENTER":278.4172,"MEAN_ANOMALY":81.6522,"EPHEMERIS_TYPE":0,"CLASSIFICATION_TYPE":"U","NORAD_CAT_ID":63052,"ELEMENT_SET_NO":999,"REV_AT_EPOCH":6115,"BSTAR":0.0012493185,"MEAN_MOTION_DOT":0.00163283,"MEAN_MOTION_DDOT":0},{"OBJECT_NAME":"FENGYUN 1C DEB","OBJECT_ID":"1999-025BHM","EPOCH":"2026-03-07T15:41:41.908992","MEAN_MOTION":15.52424712,"ECCENTRICITY":0.00874412,"INCLINATION":97.8053,"RA_OF_ASC_NODE":37.5391,"ARG_OF_PERICENTER":68.6008,"MEAN_ANOMALY":292.4545,"EPHEMERIS_TYPE":0,"CLASSIFICATION_TYPE":"U","NORAD_CAT_ID":31159,"ELEMENT_SET_NO":999,"REV_AT_EPOCH":844,"BSTAR":0.0020496514,"MEAN_MOTION_DOT":0.00149592,"MEAN_MOTION_DDOT":0}]
